start=new Date('2022-07-08T00:00:00.000Z').valueOf();
sats=[{"MEAN_ELEMENT_THEORY":"SGP4","REF_FRAME":"TEME","EPHEMERIS_TYPE":"0","SITE":"AFETR","OBJECT_ID":"2022-053AK","GP_ID":"207632692","MEAN_MOTION_DOT":"-0.01068252","APOAPSIS":"380.130","ELEMENT_SET_NO":"999","REV_AT_EPOCH":"130","LAUNCH_DATE":"2022-05-18","BSTAR":"-0.01268600000000","ECCENTRICITY":"0.00016950","TLE_LINE1":"1 52689U 22053AK  22188.91667824 -.01068252  00000-0 -12686-1 0  9996","RA_OF_ASC_NODE":"48.1855","PERIAPSIS":"377.839","CLASSIFICATION_TYPE":"U","COUNTRY_CODE":"US","NORAD_CAT_ID":"52689","ARG_OF_PERICENTER":"30.2718","PERIOD":"92.130","OBJECT_NAME":"STARLINK-4078","TLE_LINE2":"2 52689  53.2175  48.1855 0001695  30.2718 326.5405 15.63005057  1309","FILE":"3509470","MEAN_MOTION_DDOT":"0.0000000000000","TIME_SYSTEM":"UTC","EPOCH":"2022-07-07T22:00:00.999936","CENTER_NAME":"EARTH","MEAN_ANOMALY":"326.5405","SEMIMAJOR_AXIS":"6757.119","RCS_SIZE":"LARGE","DECAY_DATE":null,"OBJECT_TYPE":"PAYLOAD","MEAN_MOTION":"15.63005057","INCLINATION":"53.2175"},{"RA_OF_ASC_NODE":"48.1592","CLASSIFICATION_TYPE":"U","PERIAPSIS":"377.951","LAUNCH_DATE":"2022-05-18","REV_AT_EPOCH":"130","ELEMENT_SET_NO":"999","ECCENTRICITY":"0.00016770","TLE_LINE1":"1 52690U 22053AL  22188.91667824 -.01068140  00000-0 -12702-1 0  9993","BSTAR":"-0.01270200000000","SITE":"AFETR","EPHEMERIS_TYPE":"0","MEAN_MOTION_DOT":"-0.01068140","GP_ID":"207633219","APOAPSIS":"380.217","OBJECT_ID":"2022-053AL","MEAN_ELEMENT_THEORY":"SGP4","REF_FRAME":"TEME","OBJECT_TYPE":"PAYLOAD","MEAN_MOTION":"15.62970365","INCLINATION":"53.2175","RCS_SIZE":"LARGE","CENTER_NAME":"EARTH","EPOCH":"2022-07-07T22:00:00.999936","MEAN_ANOMALY":"321.9383","SEMIMAJOR_AXIS":"6757.219","DECAY_DATE":null,"TLE_LINE2":"2 52690  53.2175  48.1592 0001677  31.3541 321.9383 15.62970365  1301","TIME_SYSTEM":"UTC","FILE":"3509470","MEAN_MOTION_DDOT":"0.0000000000000","NORAD_CAT_ID":"52690","COUNTRY_CODE":"US","OBJECT_NAME":"STARLINK-4035","ARG_OF_PERICENTER":"31.3541","PERIOD":"92.132"},{"PERIAPSIS":"377.771","CLASSIFICATION_TYPE":"U","RA_OF_ASC_NODE":"48.1907","BSTAR":"-0.01268200000000","ECCENTRICITY":"0.00017660","TLE_LINE1":"1 52691U 22053AM  22188.91667824 -.01068231  00000-0 -12682-1 0  9992","REV_AT_EPOCH":"130","ELEMENT_SET_NO":"999","LAUNCH_DATE":"2022-05-18","OBJECT_ID":"2022-053AM","APOAPSIS":"380.158","MEAN_MOTION_DOT":"-0.01068231","GP_ID":"207633121","EPHEMERIS_TYPE":"0","SITE":"AFETR","REF_FRAME":"TEME","MEAN_ELEMENT_THEORY":"SGP4","INCLINATION":"53.2175","MEAN_MOTION":"15.63011912","OBJECT_TYPE":"PAYLOAD","DECAY_DATE":null,"SEMIMAJOR_AXIS":"6757.100","CENTER_NAME":"EARTH","EPOCH":"2022-07-07T22:00:00.999936","MEAN_ANOMALY":"328.4576","RCS_SIZE":"LARGE","MEAN_MOTION_DDOT":"0.0000000000000","FILE":"3509470","TIME_SYSTEM":"UTC","TLE_LINE2":"2 52691  53.2175  48.1907 0001766  29.0585 328.4576 15.63011912  1304","PERIOD":"92.130","ARG_OF_PERICENTER":"29.0585","OBJECT_NAME":"STARLINK-3945","COUNTRY_CODE":"US","NORAD_CAT_ID":"52691"},{"OBJECT_ID":"2022-053AN","APOAPSIS":"380.166","GP_ID":"207632946","MEAN_MOTION_DOT":"-0.01068174","EPHEMERIS_TYPE":"0","SITE":"AFETR","REF_FRAME":"TEME","MEAN_ELEMENT_THEORY":"SGP4","PERIAPSIS":"377.883","CLASSIFICATION_TYPE":"U","RA_OF_ASC_NODE":"48.1751","BSTAR":"-0.01269200000000","TLE_LINE1":"1 52692U 22053AN  22188.91667824 -.01068174  00000-0 -12692-1 0  9990","ECCENTRICITY":"0.00016890","ELEMENT_SET_NO":"999","REV_AT_EPOCH":"130","LAUNCH_DATE":"2022-05-18","MEAN_MOTION_DDOT":"0.0000000000000","FILE":"3509470","TIME_SYSTEM":"UTC","TLE_LINE2":"2 52692  53.2175  48.1751 0001689  31.2261 324.1785 15.62991126  1300","PERIOD":"92.131","ARG_OF_PERICENTER":"31.2261","OBJECT_NAME":"STARLINK-3993","COUNTRY_CODE":"US","NORAD_CAT_ID":"52692","INCLINATION":"53.2175","MEAN_MOTION":"15.62991126","OBJECT_TYPE":"PAYLOAD","DECAY_DATE":null,"SEMIMAJOR_AXIS":"6757.159","EPOCH":"2022-07-07T22:00:00.999936","CENTER_NAME":"EARTH","MEAN_ANOMALY":"324.1785","RCS_SIZE":"LARGE"},{"MEAN_MOTION_DDOT":"0.0000000000000","FILE":"3509470","TIME_SYSTEM":"UTC","TLE_LINE2":"2 52693  53.2175  48.2012 0001572  34.3183 324.6051 15.63025815  1305","PERIOD":"92.129","ARG_OF_PERICENTER":"34.3183","OBJECT_NAME":"STARLINK-3946","COUNTRY_CODE":"US","NORAD_CAT_ID":"52693","INCLINATION":"53.2175","MEAN_MOTION":"15.63025815","OBJECT_TYPE":"PAYLOAD","DECAY_DATE":null,"SEMIMAJOR_AXIS":"6757.059","CENTER_NAME":"EARTH","EPOCH":"2022-07-07T22:00:00.999936","MEAN_ANOMALY":"324.6051","RCS_SIZE":"LARGE","OBJECT_ID":"2022-053AP","APOAPSIS":"379.987","GP_ID":"207633048","MEAN_MOTION_DOT":"-0.01068242","EPHEMERIS_TYPE":"0","SITE":"AFETR","REF_FRAME":"TEME","MEAN_ELEMENT_THEORY":"SGP4","PERIAPSIS":"377.862","CLASSIFICATION_TYPE":"U","RA_OF_ASC_NODE":"48.2012","BSTAR":"-0.01267600000000","ECCENTRICITY":"0.00015720","TLE_LINE1":"1 52693U 22053AP  22188.91667824 -.01068242  00000-0 -12676-1 0  9999","REV_AT_EPOCH":"130","ELEMENT_SET_NO":"999","LAUNCH_DATE":"2022-05-18"},{"REF_FRAME":"TEME","MEAN_ELEMENT_THEORY":"SGP4","APOAPSIS":"380.172","MEAN_MOTION_DOT":"-0.01068304","GP_ID":"207633272","OBJECT_ID":"2022-053AQ","SITE":"AFETR","EPHEMERIS_TYPE":"0","ECCENTRICITY":"0.00017280","TLE_LINE1":"1 52694U 22053AQ  22188.91667824 -.01068304  00000-0 -12690-1 0  9995","BSTAR":"-0.01269000000000","LAUNCH_DATE":"2022-05-18","REV_AT_EPOCH":"130","ELEMENT_SET_NO":"999","CLASSIFICATION_TYPE":"U","PERIAPSIS":"377.837","RA_OF_ASC_NODE":"48.1804","OBJECT_NAME":"STARLINK-4072","PERIOD":"92.131","ARG_OF_PERICENTER":"29.6887","NORAD_CAT_ID":"52694","COUNTRY_CODE":"US","TIME_SYSTEM":"UTC","MEAN_MOTION_DDOT":"0.0000000000000","FILE":"3509470","TLE_LINE2":"2 52694  53.2175  48.1804 0001728  29.6887 326.4198 15.62998147  1303","DECAY_DATE":null,"RCS_SIZE":"LARGE","SEMIMAJOR_AXIS":"6757.139","MEAN_ANOMALY":"326.4198","EPOCH":"2022-07-07T22:00:00.999936","CENTER_NAME":"EARTH","INCLINATION":"53.2175","MEAN_MOTION":"15.62998147","OBJECT_TYPE":"PAYLOAD"},{"GP_ID":"207632767","MEAN_MOTION_DOT":"-0.00322089","APOAPSIS":"432.612","OBJECT_ID":"2022-053AR","SITE":"AFETR","EPHEMERIS_TYPE":"0","REF_FRAME":"TEME","MEAN_ELEMENT_THEORY":"SGP4","CLASSIFICATION_TYPE":"U","PERIAPSIS":"429.635","RA_OF_ASC_NODE":"50.0418","ECCENTRICITY":"0.00021860","TLE_LINE1":"1 52695U 22053AR  22188.86671073 -.00322089  00000-0 -69774-2 0  9999","BSTAR":"-0.00697740000000","LAUNCH_DATE":"2022-05-18","REV_AT_EPOCH":"864","ELEMENT_SET_NO":"999","TIME_SYSTEM":"UTC","FILE":"3509470","MEAN_MOTION_DDOT":"0.0000000000000","TLE_LINE2":"2 52695  53.2169  50.0418 0002186  76.8251 283.3001 15.45087158  8648","OBJECT_NAME":"STARLINK-4041","PERIOD":"93.199","ARG_OF_PERICENTER":"76.8251","NORAD_CAT_ID":"52695","COUNTRY_CODE":"US","MEAN_MOTION":"15.45087158","INCLINATION":"53.2169","OBJECT_TYPE":"PAYLOAD","DECAY_DATE":null,"RCS_SIZE":"LARGE","CENTER_NAME":"EARTH","EPOCH":"2022-07-07T20:48:03.807072","MEAN_ANOMALY":"283.3001","SEMIMAJOR_AXIS":"6809.259"},{"PERIAPSIS":"377.742","CLASSIFICATION_TYPE":"U","RA_OF_ASC_NODE":"48.1962","BSTAR":"-0.01267900000000","TLE_LINE1":"1 52696U 22053AS  22188.91667824 -.01068274  00000-0 -12679-1 0  9990","ECCENTRICITY":"0.00017790","REV_AT_EPOCH":"130","ELEMENT_SET_NO":"999","LAUNCH_DATE":"2022-05-18","OBJECT_ID":"2022-053AS","APOAPSIS":"380.146","GP_ID":"207632591","MEAN_MOTION_DOT":"-0.01068274","EPHEMERIS_TYPE":"0","SITE":"AFETR","REF_FRAME":"TEME","MEAN_ELEMENT_THEORY":"SGP4","INCLINATION":"53.2175","MEAN_MOTION":"15.63018906","OBJECT_TYPE":"PAYLOAD","DECAY_DATE":null,"SEMIMAJOR_AXIS":"6757.079","CENTER_NAME":"EARTH","MEAN_ANOMALY":"330.0410","EPOCH":"2022-07-07T22:00:00.999936","RCS_SIZE":"LARGE","MEAN_MOTION_DDOT":"0.0000000000000","FILE":"3509470","TIME_SYSTEM":"UTC","TLE_LINE2":"2 52696  53.2175  48.1962 0001779  28.1788 330.0410 15.63018906  1305","PERIOD":"92.129","ARG_OF_PERICENTER":"28.1788","OBJECT_NAME":"STARLINK-4025","COUNTRY_CODE":"US","NORAD_CAT_ID":"52696"},{"SITE":"AFETR","EPHEMERIS_TYPE":"0","GP_ID":"207632693","MEAN_MOTION_DOT":"-0.01056753","APOAPSIS":"436.238","OBJECT_ID":"2022-053AT","MEAN_ELEMENT_THEORY":"SGP4","REF_FRAME":"TEME","RA_OF_ASC_NODE":"49.8378","CLASSIFICATION_TYPE":"U","PERIAPSIS":"433.921","LAUNCH_DATE":"2022-05-18","REV_AT_EPOCH":"130","ELEMENT_SET_NO":"999","ECCENTRICITY":"0.00017000","TLE_LINE1":"1 52697U 22053AT  22188.91667824 -.01056753  00000-0 -25393-1 0  9997","BSTAR":"-0.02539300000000","TLE_LINE2":"2 52697  53.2175  49.8378 0001700  39.0703 249.8034 15.43741823  1305","TIME_SYSTEM":"UTC","FILE":"3509470","MEAN_MOTION_DDOT":"0.0000000000000","NORAD_CAT_ID":"52697","COUNTRY_CODE":"US","OBJECT_NAME":"STARLINK-4018","PERIOD":"93.280","ARG_OF_PERICENTER":"39.0703","OBJECT_TYPE":"PAYLOAD","MEAN_MOTION":"15.43741823","INCLINATION":"53.2175","RCS_SIZE":"MEDIUM","EPOCH":"2022-07-07T22:00:00.999936","CENTER_NAME":"EARTH","MEAN_ANOMALY":"249.8034","SEMIMAJOR_AXIS":"6813.214","DECAY_DATE":null},{"SITE":"AFETR","EPHEMERIS_TYPE":"0","APOAPSIS":"438.752","GP_ID":"207604566","MEAN_MOTION_DOT":"-0.01070477","OBJECT_ID":"2022-053AU","MEAN_ELEMENT_THEORY":"SGP4","REF_FRAME":"TEME","RA_OF_ASC_NODE":"49.8074","CLASSIFICATION_TYPE":"U","PERIAPSIS":"436.624","LAUNCH_DATE":"2022-05-18","REV_AT_EPOCH":"824","ELEMENT_SET_NO":"999","TLE_LINE1":"1 52698U 22053AU  22188.91667824 -.01070477  00000-0 -26142-1 0  9990","ECCENTRICITY":"0.00015610","BSTAR":"-0.02614200000000","TLE_LINE2":"2 52698  53.2175  49.8074 0001561  47.1341 229.9792 15.42855630  8243","TIME_SYSTEM":"UTC","MEAN_MOTION_DDOT":"0.0000000000000","FILE":"3509331","NORAD_CAT_ID":"52698","COUNTRY_CODE":"US","OBJECT_NAME":"STARLINK-4030","PERIOD":"93.333","ARG_OF_PERICENTER":"47.1341","OBJECT_TYPE":"PAYLOAD","INCLINATION":"53.2175","MEAN_MOTION":"15.42855630","RCS_SIZE":"LARGE","SEMIMAJOR_AXIS":"6815.823","EPOCH":"2022-07-07T22:00:00.999936","CENTER_NAME":"EARTH","MEAN_ANOMALY":"229.9792","DECAY_DATE":null}];
